{
    "links": {
        "self": "http://www.neowsapp.com/rest/v1/neo/54050977?api_key=iIulBulltgU6a56xZRHN4H3l9WmuAYTsLGpBGhQ2"
    },
    "id": "54050977",
    "neo_reference_id": "54050977",
    "name": "(2020 PY)",
    "designation": "2020 PY",
    "nasa_jpl_url": "http://ssd.jpl.nasa.gov/sbdb.cgi?sstr=54050977",
    "absolute_magnitude_h": 25.693,
    "estimated_diameter": {
        "kilometers": {
            "estimated_diameter_min": 0.0193176804,
            "estimated_diameter_max": 0.0431956465
        },
        "meters": {
            "estimated_diameter_min": 19.3176803987,
            "estimated_diameter_max": 43.1956465391
        },
        "miles": {
            "estimated_diameter_min": 0.0120034464,
            "estimated_diameter_max": 0.0268405221
        },
        "feet": {
            "estimated_diameter_min": 63.3782185592,
            "estimated_diameter_max": 141.7180049912
        }
    },
    "is_potentially_hazardous_asteroid": false,
    "close_approach_data": [
        {
            "close_approach_date": "2020-07-28",
            "close_approach_date_full": "2020-Jul-28 17:55",
            "epoch_date_close_approach": 1595958900000,
            "relative_velocity": {
                "kilometers_per_second": "10.4450369511",
                "kilometers_per_hour": "37602.1330238513",
                "miles_per_hour": "23364.503155848"
            },
            "miss_distance": {
                "astronomical": "0.0409401965",
                "lunar": "15.9257364385",
                "kilometers": "6124566.193781455",
                "miles": "3805628.963455879"
            },
            "orbiting_body": "Earth"
        }
    ],
    "orbital_data": {
        "orbit_id": "2",
        "orbit_determination_date": "2020-08-22 06:35:27",
        "first_observation_date": "2020-08-10",
        "last_observation_date": "2020-08-16",
        "data_arc_in_days": 6,
        "observations_used": 12,
        "orbit_uncertainty": "8",
        "minimum_orbit_intersection": ".0384075",
        "jupiter_tisserand_invariant": "3.587",
        "epoch_osculation": "2459074.5",
        "eccentricity": ".5244016489493182",
        "semi_major_axis": "2.060652200439539",
        "inclination": "7.714752457163095",
        "ascending_node_longitude": "137.3164744423346",
        "orbital_period": "1080.451987284559",
        "perihelion_distance": ".9800427886180039",
        "perihelion_argument": "133.7908891894216",
        "aphelion_distance": "3.141261612261074",
        "perihelion_time": "2459031.089613140685",
        "mean_anomaly": "14.46407563989006",
        "mean_motion": ".3331938894432211",
        "equinox": "J2000",
        "orbit_class": {
            "orbit_class_type": "APO",
            "orbit_class_description": "Near-Earth asteroid orbits which cross the Earth’s orbit similar to that of 1862 Apollo",
            "orbit_class_range": "a (semi-major axis) > 1.0 AU; q (perihelion) < 1.017 AU"
        }
    },
    "is_sentry_object": false
}